STARLINK-32498          
1 61966U 24210H   26068.58512512  .00022434  00000+0  82165-3 0  9997
2 61966  43.0044 165.7411 0001894 285.7197  74.3445 15.27605242 75060
FLOCK 4G-6              
1 62660U 25009BD  26068.71061311  .00012261  00000+0  45910-3 0  9991
2 62660  97.3980 150.7943 0002380 348.2637  11.8546 15.27432125121307
